IRIDIUM 152             
1 43479U 18047D   26088.14711009  .00000184  00000+0  58555-4 0  9998
2 43479  86.3938 121.8098 0002170  90.7558 269.3887 14.34218086411016
IRIDIUM 147             
1 43480U 18047E   26088.15345276 -.00000064  00000+0 -29821-4 0  9993
2 43480  86.3941 121.8107 0002209  95.1063 265.0385 14.34217949411019
IRIDIUM 110             
1 43481U 18047F   26088.15979403  .00000258  00000+0  84976-4 0  9994
2 43481  86.3942 121.8980 0002092  84.0956 276.0478 14.34217946411009
IRIDIUM 162             
1 43482U 18047G   26088.15488809  .00000305  00000+0  84719-4 0  9998
2 43482  86.4463 121.8382 0002209  96.1886 263.9567 14.43287173413589
IRIDIUM 160             
1 43569U 18061A   26088.10562976 -.00000002  00000+0 -76413-5 0  9992
2 43569  86.3912  90.2884 0002130  86.8868 273.2571 14.34217371401891
IRIDIUM 166             
1 43570U 18061B   26088.06123277 -.00000075  00000+0 -33706-4 0  9993
2 43570  86.3909  90.2584 0002231  91.9159 268.2293 14.34216719401911
IRIDIUM 158             
1 43571U 18061C   26088.09928749  .00000035  00000+0  54143-5 0  9997
2 43571  86.3906  90.2523 0002115  91.8167 268.3271 14.34217636401883
IRIDIUM 165             
1 43572U 18061D   26087.91535159 -.00000009  00000+0 -10302-4 0  9998
2 43572  86.3911  90.3742 0002260  92.7659 267.3796 14.34217690401882
IRIDIUM 155             
1 43573U 18061E   26088.08660199  .00000012  00000+0 -28891-5 0  9997
2 43573  86.3905  90.1754 0002066  94.2579 265.8853 14.34217548401877
IRIDIUM 154             
1 43574U 18061F   26088.06757509  .00000002  00000+0 -63474-5 0  9993
2 43574  86.3909  90.3131 0002299  92.2790 267.8669 14.34217515401921
IRIDIUM 163             
1 43575U 18061G   26088.04854586  .00000006  00000+0 -48769-5 0  9999
2 43575  86.3906  90.2388 0002046  90.5030 269.6400 14.34217286401894
IRIDIUM 156             
1 43576U 18061H   26088.23248205 -.00000030  00000+0 -17935-4 0  9994
2 43576  86.3907  90.1691 0002095  95.5572 264.5863 14.34217300401919
IRIDIUM 164             
1 43577U 18061J   26088.07391722 -.00000008  00000+0 -10041-4 0  9996
2 43577  86.3908  90.2745 0002326  89.0835 271.0627 14.34217272401930
IRIDIUM 159             
1 43578U 18061K   26088.04220384  .00000071  00000+0  18244-4 0  9990
2 43578  86.3905  90.2262 0002208  86.7747 273.3701 14.34217884401899
IRIDIUM 180             
1 43922U 19002A   26088.18123751  .00000349  00000+0  11773-3 0  9991
2 43922  86.4007  27.0212 0002199  82.2076 277.9370 14.34218943377525
IRIDIUM 176             
1 43923U 19002B   26088.09304454  .00001050  00000+0  16269-3 0  9998
2 43923  86.6127  27.0125 0002632  86.9466 273.2053 14.72252053387463
IRIDIUM 168             
1 43924U 19002C   26088.10512682  .00000176  00000+0  55858-4 0  9991
2 43924  86.4008  27.1281 0002137  85.0923 275.0517 14.34218398377491
