[{"OBJECT_NAME":"IRIDIUM 152","OBJECT_ID":"2018-047D","EPOCH":"2026-03-29T03:31:50.311776","MEAN_MOTION":14.34218086,"ECCENTRICITY":0.000217,"INCLINATION":86.3938,"RA_OF_ASC_NODE":121.8098,"ARG_OF_PERICENTER":90.7558,"MEAN_ANOMALY":269.3887,"EPHEMERIS_TYPE":0,"CLASSIFICATION_TYPE":"U","NORAD_CAT_ID":43479,"ELEMENT_SET_NO":999,"REV_AT_EPOCH":41101,"BSTAR":5.8555e-5,"MEAN_MOTION_DOT":1.84e-6,"MEAN_MOTION_DDOT":0},{"OBJECT_NAME":"IRIDIUM 147","OBJECT_ID":"2018-047E","EPOCH":"2026-03-29T03:40:58.318464","MEAN_MOTION":14.34217949,"ECCENTRICITY":0.0002209,"INCLINATION":86.3941,"RA_OF_ASC_NODE":121.8107,"ARG_OF_PERICENTER":95.1063,"MEAN_ANOMALY":265.0385,"EPHEMERIS_TYPE":0,"CLASSIFICATION_TYPE":"U","NORAD_CAT_ID":43480,"ELEMENT_SET_NO":999,"REV_AT_EPOCH":41101,"BSTAR":-2.9821e-5,"MEAN_MOTION_DOT":-6.4e-7,"MEAN_MOTION_DDOT":0},{"OBJECT_NAME":"IRIDIUM 110","OBJECT_ID":"2018-047F","EPOCH":"2026-03-29T03:50:06.204192","MEAN_MOTION":14.34217946,"ECCENTRICITY":0.0002092,"INCLINATION":86.3942,"RA_OF_ASC_NODE":121.898,"ARG_OF_PERICENTER":84.0956,"MEAN_ANOMALY":276.0478,"EPHEMERIS_TYPE":0,"CLASSIFICATION_TYPE":"U","NORAD_CAT_ID":43481,"ELEMENT_SET_NO":999,"REV_AT_EPOCH":41100,"BSTAR":8.4976e-5,"MEAN_MOTION_DOT":2.58e-6,"MEAN_MOTION_DDOT":0},{"OBJECT_NAME":"IRIDIUM 162","OBJECT_ID":"2018-047G","EPOCH":"2026-03-29T03:43:02.330976","MEAN_MOTION":14.43287173,"ECCENTRICITY":0.0002209,"INCLINATION":86.4463,"RA_OF_ASC_NODE":121.8382,"ARG_OF_PERICENTER":96.1886,"MEAN_ANOMALY":263.9567,"EPHEMERIS_TYPE":0,"CLASSIFICATION_TYPE":"U","NORAD_CAT_ID":43482,"ELEMENT_SET_NO":999,"REV_AT_EPOCH":41358,"BSTAR":8.4719e-5,"MEAN_MOTION_DOT":3.05e-6,"MEAN_MOTION_DDOT":0},{"OBJECT_NAME":"IRIDIUM 160","OBJECT_ID":"2018-061A","EPOCH":"2026-03-29T02:32:06.411264","MEAN_MOTION":14.34217371,"ECCENTRICITY":0.000213,"INCLINATION":86.3912,"RA_OF_ASC_NODE":90.2884,"ARG_OF_PERICENTER":86.8868,"MEAN_ANOMALY":273.2571,"EPHEMERIS_TYPE":0,"CLASSIFICATION_TYPE":"U","NORAD_CAT_ID":43569,"ELEMENT_SET_NO":999,"REV_AT_EPOCH":40189,"BSTAR":-7.6413e-6,"MEAN_MOTION_DOT":-2.0e-8,"MEAN_MOTION_DDOT":0},{"OBJECT_NAME":"IRIDIUM 166","OBJECT_ID":"2018-061B","EPOCH":"2026-03-29T01:28:10.511328","MEAN_MOTION":14.34216719,"ECCENTRICITY":0.0002231,"INCLINATION":86.3909,"RA_OF_ASC_NODE":90.2584,"ARG_OF_PERICENTER":91.9159,"MEAN_ANOMALY":268.2293,"EPHEMERIS_TYPE":0,"CLASSIFICATION_TYPE":"U","NORAD_CAT_ID":43570,"ELEMENT_SET_NO":999,"REV_AT_EPOCH":40191,"BSTAR":-3.3706e-5,"MEAN_MOTION_DOT":-7.5e-7,"MEAN_MOTION_DDOT":0},{"OBJECT_NAME":"IRIDIUM 158","OBJECT_ID":"2018-061C","EPOCH":"2026-03-29T02:22:58.439136","MEAN_MOTION":14.34217636,"ECCENTRICITY":0.0002115,"INCLINATION":86.3906,"RA_OF_ASC_NODE":90.2523,"ARG_OF_PERICENTER":91.8167,"MEAN_ANOMALY":268.3271,"EPHEMERIS_TYPE":0,"CLASSIFICATION_TYPE":"U","NORAD_CAT_ID":43571,"ELEMENT_SET_NO":999,"REV_AT_EPOCH":40188,"BSTAR":5.4143e-6,"MEAN_MOTION_DOT":3.5e-7,"MEAN_MOTION_DDOT":0},{"OBJECT_NAME":"IRIDIUM 165","OBJECT_ID":"2018-061D","EPOCH":"2026-03-28T21:58:06.377376","MEAN_MOTION":14.3421769,"ECCENTRICITY":0.000226,"INCLINATION":86.3911,"RA_OF_ASC_NODE":90.3742,"ARG_OF_PERICENTER":92.7659,"MEAN_ANOMALY":267.3796,"EPHEMERIS_TYPE":0,"CLASSIFICATION_TYPE":"U","NORAD_CAT_ID":43572,"ELEMENT_SET_NO":999,"REV_AT_EPOCH":40188,"BSTAR":-1.0302e-5,"MEAN_MOTION_DOT":-9.0e-8,"MEAN_MOTION_DDOT":0},{"OBJECT_NAME":"IRIDIUM 155","OBJECT_ID":"2018-061E","EPOCH":"2026-03-29T02:04:42.411936","MEAN_MOTION":14.34217548,"ECCENTRICITY":0.0002066,"INCLINATION":86.3905,"RA_OF_ASC_NODE":90.1754,"ARG_OF_PERICENTER":94.2579,"MEAN_ANOMALY":265.8853,"EPHEMERIS_TYPE":0,"CLASSIFICATION_TYPE":"U","NORAD_CAT_ID":43573,"ELEMENT_SET_NO":999,"REV_AT_EPOCH":40187,"BSTAR":-2.8891e-6,"MEAN_MOTION_DOT":1.2e-7,"MEAN_MOTION_DDOT":0},{"OBJECT_NAME":"IRIDIUM 154","OBJECT_ID":"2018-061F","EPOCH":"2026-03-29T01:37:18.487776","MEAN_MOTION":14.34217515,"ECCENTRICITY":0.0002299,"INCLINATION":86.3909,"RA_OF_ASC_NODE":90.3131,"ARG_OF_PERICENTER":92.279,"MEAN_ANOMALY":267.8669,"EPHEMERIS_TYPE":0,"CLASSIFICATION_TYPE":"U","NORAD_CAT_ID":43574,"ELEMENT_SET_NO":999,"REV_AT_EPOCH":40192,"BSTAR":-6.3474e-6,"MEAN_MOTION_DOT":2.0e-8,"MEAN_MOTION_DDOT":0},{"OBJECT_NAME":"IRIDIUM 163","OBJECT_ID":"2018-061G","EPOCH":"2026-03-29T01:09:54.362304","MEAN_MOTION":14.34217286,"ECCENTRICITY":0.0002046,"INCLINATION":86.3906,"RA_OF_ASC_NODE":90.2388,"ARG_OF_PERICENTER":90.503,"MEAN_ANOMALY":269.64,"EPHEMERIS_TYPE":0,"CLASSIFICATION_TYPE":"U","NORAD_CAT_ID":43575,"ELEMENT_SET_NO":999,"REV_AT_EPOCH":40189,"BSTAR":-4.8769e-6,"MEAN_MOTION_DOT":6.0e-8,"MEAN_MOTION_DDOT":0},{"OBJECT_NAME":"IRIDIUM 156","OBJECT_ID":"2018-061H","EPOCH":"2026-03-29T05:34:46.449120","MEAN_MOTION":14.342173,"ECCENTRICITY":0.0002095,"INCLINATION":86.3907,"RA_OF_ASC_NODE":90.1691,"ARG_OF_PERICENTER":95.5572,"MEAN_ANOMALY":264.5863,"EPHEMERIS_TYPE":0,"CLASSIFICATION_TYPE":"U","NORAD_CAT_ID":43576,"ELEMENT_SET_NO":999,"REV_AT_EPOCH":40191,"BSTAR":-1.7935e-5,"MEAN_MOTION_DOT":-3.0e-7,"MEAN_MOTION_DDOT":0},{"OBJECT_NAME":"IRIDIUM 164","OBJECT_ID":"2018-061J","EPOCH":"2026-03-29T01:46:26.447808","MEAN_MOTION":14.34217272,"ECCENTRICITY":0.0002326,"INCLINATION":86.3908,"RA_OF_ASC_NODE":90.2745,"ARG_OF_PERICENTER":89.0835,"MEAN_ANOMALY":271.0627,"EPHEMERIS_TYPE":0,"CLASSIFICATION_TYPE":"U","NORAD_CAT_ID":43577,"ELEMENT_SET_NO":999,"REV_AT_EPOCH":40193,"BSTAR":-1.0041e-5,"MEAN_MOTION_DOT":-8.0e-8,"MEAN_MOTION_DDOT":0},{"OBJECT_NAME":"IRIDIUM 159","OBJECT_ID":"2018-061K","EPOCH":"2026-03-29T01:00:46.411776","MEAN_MOTION":14.34217884,"ECCENTRICITY":0.0002208,"INCLINATION":86.3905,"RA_OF_ASC_NODE":90.2262,"ARG_OF_PERICENTER":86.7747,"MEAN_ANOMALY":273.3701,"EPHEMERIS_TYPE":0,"CLASSIFICATION_TYPE":"U","NORAD_CAT_ID":43578,"ELEMENT_SET_NO":999,"REV_AT_EPOCH":40189,"BSTAR":1.8244e-5,"MEAN_MOTION_DOT":7.1e-7,"MEAN_MOTION_DDOT":0},{"OBJECT_NAME":"IRIDIUM 180","OBJECT_ID":"2019-002A","EPOCH":"2026-03-29T04:20:58.920864","MEAN_MOTION":14.34218943,"ECCENTRICITY":0.0002199,"INCLINATION":86.4007,"RA_OF_ASC_NODE":27.0212,"ARG_OF_PERICENTER":82.2076,"MEAN_ANOMALY":277.937,"EPHEMERIS_TYPE":0,"CLASSIFICATION_TYPE":"U","NORAD_CAT_ID":43922,"ELEMENT_SET_NO":999,"REV_AT_EPOCH":37752,"BSTAR":0.00011773,"MEAN_MOTION_DOT":3.49e-6,"MEAN_MOTION_DDOT":0},{"OBJECT_NAME":"IRIDIUM 176","OBJECT_ID":"2019-002B","EPOCH":"2026-03-29T02:13:59.048256","MEAN_MOTION":14.72252053,"ECCENTRICITY":0.0002632,"INCLINATION":86.6127,"RA_OF_ASC_NODE":27.0125,"ARG_OF_PERICENTER":86.9466,"MEAN_ANOMALY":273.2053,"EPHEMERIS_TYPE":0,"CLASSIFICATION_TYPE":"U","NORAD_CAT_ID":43923,"ELEMENT_SET_NO":999,"REV_AT_EPOCH":38746,"BSTAR":0.00016269,"MEAN_MOTION_DOT":1.05e-5,"MEAN_MOTION_DDOT":0},{"OBJECT_NAME":"IRIDIUM 168","OBJECT_ID":"2019-002C","EPOCH":"2026-03-29T02:31:22.957248","MEAN_MOTION":14.34218398,"ECCENTRICITY":0.0002137,"INCLINATION":86.4008,"RA_OF_ASC_NODE":27.1281,"ARG_OF_PERICENTER":85.0923,"MEAN_ANOMALY":275.0517,"EPHEMERIS_TYPE":0,"CLASSIFICATION_TYPE":"U","NORAD_CAT_ID":43924,"ELEMENT_SET_NO":999,"REV_AT_EPOCH":37749,"BSTAR":5.5858e-5,"MEAN_MOTION_DOT":1.76e-6,"MEAN_MOTION_DDOT":0}]
